STARLINK-5307           
1 55658U 23021AG  26068.75231260 -.00000224  00000+0 -10970-4 0  9995
2 55658  70.0011 184.1828 0003547 269.3273  90.7479 14.98334081168803
LEMUR-2-BALTO           
1 63395U 25052BH  26068.69493058  .00007621  00000+0  63456-3 0  9998
2 63395  97.6978 323.5166 0002279 359.2852   0.8367 14.98934076 53850
